NORAD_CAT_ID,OBJECT_NAME,OBJECT_TYPE,EPOCH,MEAN_MOTION,ECCENTRICITY,INCLINATION,RA_OF_ASC_NODE,ARG_OF_PERICENTER,MEAN_ANOMALY,BSTAR,MEAN_MOTION_DOT,MEAN_MOTION_DDOT,TLE_LINE0,TLE_LINE1,TLE_LINE2,SEMIMAJOR_AXIS,PERIOD,APOGEE,PERIGEE,DECAYED
51725.0,STARLINK-3522,PAYLOAD,2023-12-07 13:14:59,15.0881654,0.000152,53.2187,64.3318,105.7597,254.3562,3.8116e-05,3.18e-06,0.0,0 STARLINK-3522,1 51725U 22016M   23341.55207991  .00000318  00000-0  38116-4 0  9997,2 51725  53.2187  64.3318 0001520 105.7597 254.3562 15.08816540 99154,6917.952,95.439,540.869,538.766,0.0
51725.0,STARLINK-3522,PAYLOAD,2023-12-07 14:50:22,15.0881726,0.0001405,53.2179,64.0344,90.5421,269.5732,5.8853e-05,6.48e-06,0.0,0 STARLINK-3522,1 51725U 22016M   23341.61832028  .00000648  00000-0  58853-4 0  9995,2 51725  53.2179  64.0344 0001405  90.5421 269.5732 15.08817260100295,6917.95,95.439,540.787,538.843,0.0
51725.0,STARLINK-3522,PAYLOAD,2023-12-08 11:30:23,15.08827842,0.0001368,53.2181,60.1697,91.1861,268.9288,0.00020043,2.902e-05,0.0,0 STARLINK-3522,1 51725U 22016M   23342.47943906  .00002902  00000-0  20043-3 0  9992,2 51725  53.2181  60.1697 0001368  91.1861 268.9288 15.08827842100420,6917.918,95.438,540.729,538.836,0.0
51725.0,STARLINK-3522,PAYLOAD,2023-12-08 13:05:46,15.08834112,0.0001503,53.2185,59.8749,88.3321,271.7844,0.00017999,2.577e-05,0.0,0 STARLINK-3522,1 51725U 22016M   23342.54567663  .00002577  00000-0  17999-3 0  9996,2 51725  53.2185  59.8749 0001503  88.3321 271.7844 15.08834112 99309,6917.898,95.438,540.803,538.724,0.0
51725.0,STARLINK-3522,PAYLOAD,2023-12-09 14:31:56,15.08835499,0.0001688,53.2196,55.1129,64.1573,295.9593,0.00020132,2.917e-05,0.0,0 STARLINK-3522,1 51725U 22016M   23343.60551835  .00002917  00000-0  20132-3 0  9999,2 51725  53.2196  55.1129 0001688  64.1573 295.9593 15.08835499 99462,6917.894,95.438,540.927,538.591,0.0
51725.0,STARLINK-3522,PAYLOAD,2023-12-11 11:02:44,15.08842013,0.0001488,53.2189,46.7827,108.6059,251.5095,6.2802e-05,7.12e-06,0.0,0 STARLINK-3522,1 51725U 22016M   23345.46023644  .00000712  00000-0  62802-4 0  9999,2 51725  53.2189  46.7827 0001488 108.6059 251.5095 15.08842013100879,6917.874,95.437,540.769,538.71,0.0
51725.0,STARLINK-3522,PAYLOAD,2023-12-12 10:53:31,15.0883956,0.0001597,53.2186,42.3323,110.505,249.6114,5.3017e-05,5.56e-06,0.0,0 STARLINK-3522,1 51725U 22016M   23346.45383998  .00000556  00000-0  53017-4 0  9994,2 51725  53.2186  42.3323 0001597 110.5050 249.6114 15.08839560 99895,6917.882,95.438,540.852,538.642,0.0
51725.0,STARLINK-3522,PAYLOAD,2023-12-13 10:44:19,15.08837201,0.0001506,53.2184,37.8709,104.2075,255.9085,2.0069e-05,3.1e-07,0.0,0 STARLINK-3522,1 51725U 22016M   23347.44744369  .00000031  00000-0  20069-4 0  9996,2 51725  53.2184  37.8709 0001506 104.2075 255.9085 15.08837201100044,6917.889,95.438,540.796,538.712,0.0
51725.0,STARLINK-3522,PAYLOAD,2023-12-14 10:35:05,15.08842539,0.0001463,53.2183,33.4068,87.4015,272.7145,8.1514e-05,1.01e-05,0.0,0 STARLINK-3522,1 51725U 22016M   23348.44104094  .00001010  00000-0  81514-4 0  9992,2 51725  53.2183  33.4068 0001463  87.4015 272.7145 15.08842539100191,6917.873,95.437,540.75,538.726,0.0
51725.0,STARLINK-3522,PAYLOAD,2023-12-15 10:25:52,15.08842921,0.0001549,53.2184,28.9468,80.2644,279.8523,0.00010323,1.355e-05,0.0,0 STARLINK-3522,1 51725U 22016M   23349.43464096  .00001355  00000-0  10323-3 0  9994,2 51725  53.2184  28.9468 0001549  80.2644 279.8523 15.08842921100349,6917.871,95.437,540.808,538.665,0.0
51725.0,STARLINK-3522,PAYLOAD,2023-12-16 08:41:17,15.08837109,0.0001836,53.2194,24.7798,70.0117,290.1073,-7.7874e-06,-4.12e-06,0.0,0 STARLINK-3522,1 51725U 22016M   23350.36201184 -.00000412  00000-0 -77874-5 0  9996,2 51725  53.2194  24.7798 0001836  70.0117 290.1073 15.08837109101610,6917.889,95.438,541.024,538.484,0.0
51725.0,STARLINK-3522,PAYLOAD,2023-12-17 08:32:04,15.08833454,0.0001788,53.2198,20.3171,77.0634,283.0558,0.00019309,2.786e-05,0.0,0 STARLINK-3522,1 51725U 22016M   23351.35560848  .00002786  00000-0  19309-3 0  9992,2 51725  53.2198  20.3171 0001788  77.0634 283.0558 15.08833454100637,6917.9,95.438,541.002,538.528,0.0
51725.0,STARLINK-3522,PAYLOAD,2023-12-18 08:22:50,15.08852533,0.0001656,53.2184,15.8599,88.8479,271.2703,0.00020892,3.04e-05,0.0,0 STARLINK-3522,1 51725U 22016M   23352.34919625  .00003040  00000-0  20892-3 0  9996,2 51725  53.2184  15.8599 0001656  88.8479 271.2703 15.08852533101918,6917.842,95.437,540.853,538.561,0.0
51725.0,STARLINK-3522,PAYLOAD,2023-12-18 22:41:19,15.08841351,0.0001775,53.2182,13.1894,120.5825,239.5342,-3.2836e-05,-8.11e-06,0.0,0 STARLINK-3522,1 51725U 22016M   23352.94536533 -.00000811  00000-0 -32836-4 0  9992,2 51725  53.2182  13.1894 0001775 120.5825 239.5342 15.08841351102009,6917.876,95.437,540.969,538.513,0.0
51725.0,STARLINK-3522,PAYLOAD,2023-12-19 08:13:38,15.08835113,0.0001506,53.2173,11.4055,108.4483,251.6672,-0.00010604,-1.975e-05,0.0,0 STARLINK-3522,1 51725U 22016M   23353.34280952 -.00001975  00000-0 -10604-3 0  9998,2 51725  53.2173  11.4055 0001506 108.4483 251.6672 15.08835113102062,6917.895,95.438,540.802,538.718,0.0
51725.0,STARLINK-3522,PAYLOAD,2023-12-20 08:04:25,15.0884272,0.0001676,53.2179,6.9474,118.3167,241.7995,-1.8883e-05,-5.89e-06,0.0,0 STARLINK-3522,1 51725U 22016M   23354.33640811 -.00000589  00000-0 -18883-4 0  9990,2 51725  53.2179   6.9474 0001676 118.3167 241.7995 15.08842720102216,6917.872,95.437,540.897,538.578,0.0
51725.0,STARLINK-3522,PAYLOAD,2023-12-20 22:22:54,15.08831995,0.000159,53.2182,4.2692,118.9377,241.1774,0.00042586,6.495e-05,0.0,0 STARLINK-3522,1 51725U 22016M   23354.93257466  .00006495  00000-0  42586-3 0  9992,2 51725  53.2182   4.2692 0001590 118.9377 241.1774 15.08831995102308,6917.905,95.438,540.87,538.67,0.0
51725.0,STARLINK-3522,PAYLOAD,2023-12-21 07:55:12,15.08844547,0.0001523,53.2178,2.4841,115.1684,244.9466,0.0003259,4.903e-05,0.0,0 STARLINK-3522,1 51725U 22016M   23355.33001008  .00004903  00000-0  32590-3 0  9992,2 51725  53.2178   2.4841 0001523 115.1684 244.9466 15.08844547102367,6917.866,95.437,540.785,538.678,0.0
51725.0,STARLINK-3522,PAYLOAD,2023-12-22 07:46:00,15.08838914,0.0001621,53.2172,358.0236,86.5889,273.5288,6.2025e-05,6.99e-06,0.0,0 STARLINK-3522,1 51725U 22016M   23356.32361615  .00000699  00000-0  62025-4 0  9990,2 51725  53.2172 358.0236 0001621  86.5889 273.5288 15.08838914102514,6917.884,95.438,540.87,538.627,0.0
51725.0,STARLINK-3522,PAYLOAD,2023-12-23 07:36:47,15.08839503,0.0001791,53.2173,353.5621,82.3202,277.7994,0.00017814,2.548e-05,0.0,0 STARLINK-3522,1 51725U 22016M   23357.31722009  .00002548  00000-0  17814-3 0  9998,2 51725  53.2173 353.5621 0001791  82.3202 277.7994 15.08839503101530,6917.882,95.438,540.986,538.508,0.0
51725.0,STARLINK-3522,PAYLOAD,2023-12-24 04:16:49,15.08831773,0.00019,53.2172,349.6979,74.7852,285.335,0.00041947,6.393e-05,0.0,0 STARLINK-3522,1 51725U 22016M   23358.17834768  .00006393  00000-0  41947-3 0  9995,2 51725  53.2172 349.6979 0001900  74.7852 285.3350 15.08831773102790,6917.906,95.438,541.085,538.456,0.0
51725.0,STARLINK-3522,PAYLOAD,2023-12-24 05:52:12,15.08823772,0.0001878,53.2175,349.4005,74.4236,285.6963,0.00065118,0.00010086,0.0,0 STARLINK-3522,1 51725U 22016M   23358.24459236  .00010086  00000-0  65118-3 0  9996,2 51725  53.2175 349.4005 0001878  74.4236 285.6963 15.08823772101677,6917.93,95.439,541.094,538.496,0.0
51725.0,STARLINK-3522,PAYLOAD,2023-12-24 20:10:39,15.08844862,0.0001648,53.2163,346.7221,94.9478,265.1702,0.00027015,4.015e-05,0.0,0 STARLINK-3522,1 51725U 22016M   23358.84073941  .00004015  00000-0  27015-3 0  9996,2 51725  53.2163 346.7221 0001648  94.9478 265.1702 15.08844862102896,6917.866,95.437,540.871,538.59,0.0
51725.0,STARLINK-3522,PAYLOAD,2023-12-25 08:53:44,15.08854149,0.000158,53.2161,344.3384,102.2091,257.9078,0.00023901,3.519e-05,0.0,0 STARLINK-3522,1 51725U 22016M   23359.37065239  .00003519  00000-0  23901-3 0  9994,2 51725  53.2161 344.3384 0001580 102.2091 257.9078 15.08854149101845,6917.837,95.437,540.795,538.609,0.0
51725.0,STARLINK-3522,PAYLOAD,2023-12-26 03:58:22,15.08845878,0.0002175,53.217,340.7634,135.024,225.0929,-3.4392e-05,-8.36e-06,0.0,0 STARLINK-3522,1 51725U 22016M   23360.16553360 -.00000836  00000-0 -34392-4 0  9998,2 51725  53.2170 340.7634 0002175 135.0240 225.0929 15.08845878103093,6917.862,95.437,541.232,538.223,0.0
51725.0,STARLINK-3522,PAYLOAD,2023-12-26 08:44:31,15.08843794,0.000176,53.2173,339.8783,114.7974,245.3201,8.3841e-05,1.047e-05,0.0,0 STARLINK-3522,1 51725U 22016M   23360.36425755  .00001047  00000-0  83841-4 0  9992,2 51725  53.2173 339.8783 0001760 114.7974 245.3201 15.08843794101997,6917.869,95.437,540.951,538.516,0.0
51725.0,STARLINK-3522,PAYLOAD,2023-12-26 23:03:00,15.08836032,0.0001895,53.2177,337.1995,120.6471,239.4708,2.1748e-05,5.8e-07,0.0,0 STARLINK-3522,1 51725U 22016M   23360.96042194  .00000058  00000-0  21748-4 0  9999,2 51725  53.2177 337.1995 0001895 120.6471 239.4708 15.08836032102088,6917.893,95.438,541.068,538.447,0.0
51725.0,STARLINK-3522,PAYLOAD,2023-12-27 03:49:09,15.08840918,0.0001573,53.2168,336.308,101.6489,258.4679,6.8051e-05,7.95e-06,0.0,0 STARLINK-3522,1 51725U 22016M   23361.15914045  .00000795  00000-0  68051-4 0  9990,2 51725  53.2168 336.3080 0001573 101.6489 258.4679 15.08840918103240,6917.878,95.437,540.831,538.654,0.0
51725.0,STARLINK-3522,PAYLOAD,2023-12-27 22:53:47,15.08834967,0.0001724,53.2168,332.7395,105.5146,254.6036,0.00029485,4.407e-05,0.0,0 STARLINK-3522,1 51725U 22016M   23361.95402384  .00004407  00000-0  29485-3 0  9997,2 51725  53.2168 332.7395 0001724 105.5146 254.6036 15.08834967102230,6917.896,95.438,540.953,538.568,0.0
51725.0,STARLINK-3522,PAYLOAD,2023-12-28 08:26:06,15.08846746,0.0001651,53.217,330.9561,98.6345,261.4834,0.00028848,4.307e-05,0.0,0 STARLINK-3522,1 51725U 22016M   23362.35145889  .00004307  00000-0  28848-3 0  9997,2 51725  53.2170 330.9561 0001651  98.6345 261.4834 15.08846746103422,6917.86,95.437,540.867,538.583,0.0
